#aV2023  8 29  0  0  0.00000000     288 DD+AD WGS84 FIT  NGA
## 2277 172800.00000000   300.00000000 60185 0.0000000000000
+   31     1  2  3  4  5  6  7  8  9 10 11 12 13 14 15 16 17
+         18 19 20 21 22 23 24 25 26 27 29 30 31 32  0  0  0
+          0  0  0  0  0  0  0  0  0  0  0  0  0  0  0  0  0
+          0  0  0  0  0  0  0  0  0  0  0  0  0  0  0  0  0
+          0  0  0  0  0  0  0  0  0  0  0  0  0  0  0  0  0
++         2  2  2  2  2  2  2  2  2  2  2  2  2  2  2  2  2
++         2  2  2  2  2  2  2  2  2  2  2  2  2  2  0  0  0
++         0  0  0  0  0  0  0  0  0  0  0  0  0  0  0  0  0
++         0  0  0  0  0  0  0  0  0  0  0  0  0  0  0  0  0
++         0  0  0  0  0  0  0  0  0  0  0  0  0  0  0  0  0
%c cc cc ccc ccc cccc cccc cccc cccc ccccc ccccc ccccc ccccc
%c cc cc ccc ccc cccc cccc cccc cccc ccccc ccccc ccccc ccccc
%f  0.0000000  0.000000000  0.00000000000  0.000000000000000
%f  0.0000000  0.000000000  0.00000000000  0.000000000000000
%i    0    0    0    0      0      0      0      0         0
%i    0    0    0    0      0      0      0      0         0
/*      NGA, ST. LOUIS,MO.                                  
/*   EPHEMERIS COMPUTED FROM 2 DAYS OF DATA                 
/*   EPOCHA v8 SMOOTHER                                     
/*   G2139 IERS2010 SATIGS SATAPC                           
*  2023  8 29  0 45  0.00000000
P  1 -20796.111611 -14882.779701  -8139.250639    167.013660                    
V  1   9494.173712   2596.301898 -29964.387140     -0.012024                    
P  2 -16726.739526 -15191.035766 -13590.290134   -560.284648                    
V  2  17796.476999   3537.443237 -24777.141296      0.042676                    
P  3 -12296.397823 -18393.845270  14629.421837   -164.124737                    
V  3   -820.629479 -18801.941666 -23980.669001      0.191194                    
P  4 -14729.785703  -7312.512863  20889.922030    139.657347                    
V  4  21116.614675 -15976.448521   9182.909817      0.113410                    
P  5   5359.333445  25944.982290  -1000.812432   -140.599108                    
V  5  -2475.185254   1513.758918  31925.491533     -0.014864                    
P  6 -13964.713812   8932.434126  20836.450945    559.442563                    
V  6 -23880.759533 -10831.200074 -11306.355496     -0.059335                    
P  7 -25260.272882  -5209.238314  -6841.848161     82.641429                    
V  7  -7469.034385  -6011.317512  29607.313524     -0.106787                    
P  8  -5145.279624 -15098.987494 -21251.946647   -139.480530                    
V  8  21354.934266 -16362.607631   6869.844170     -0.018296                    
P  9 -20692.673691   1720.269400  16506.141376    -74.459134                    
V  9  15253.128493 -14711.006563  20508.204138      0.100050                    
P 10  11610.753269 -13059.657274 -19720.001011    -51.163062                    
V 10   4527.326822  25107.682810 -14147.884145     -0.015489                    
P 11    403.580322  16264.902066  21013.489943   -342.478903                    
V 11 -24377.657972 -10745.605565   8740.957937     -0.178290                    
P 12   9313.850424  21975.077113  11454.747205   -418.382845                    
V 12  -1408.650663  15052.295124 -27008.199830     -0.044603                    
P 13  -4869.163190  17842.488622 -19172.241165    565.859504                    
V 13 -21507.029251  10701.797312  15785.250880      0.046044                    
P 14 -13854.788417   9503.847998 -20512.334572    168.288060                    
V 14  -3720.582481 -25939.731367  -9659.115782      0.115149                    
P 15   7961.343833  14415.174795 -21288.445387     72.215629                    
V 15 -18719.030432  18166.410446   5669.494588      0.036230                    
P 16    917.771541 -26095.896274   2942.312481   -461.965360                    
V 16   3293.005455   4021.761931  31825.368546      0.052045                    
P 17 -22682.349206  13736.858602  -1881.362536    723.272138                    
V 17   1094.466355  -3575.933667 -31840.028006      0.003443                    
P 18  24514.391089   3340.922791  -9895.164101   -398.714933                    
V 18  10654.876395   6823.008039  28521.830845     -0.130316                    
P 19 -19858.014895  16440.637835   5392.655142    364.000081                    
V 19  -7518.131083   1441.688648 -31233.973317      0.051423                    
P 20   -196.146146  24532.328099  10448.168974    414.761831                    
V 20  -6426.491270 -11794.364130  27480.430829     -0.020146                    
P 21 -15051.586712 -15827.944802 -15182.197387    149.941118                    
V 21  19428.361443   4464.523275 -22239.802314     -0.006749                    
P 22 -10861.708305  17360.234905 -16598.234706    132.583413                    
V 22  -2604.391629 -21766.413353 -20228.530443     -0.074784                    
P 23  15122.774055    787.814991 -21828.959349     61.019132                    
V 23   4207.985193  27348.214795   3733.844500      0.049231                    
P 24  18352.844374  15309.275738 -12393.667929   -303.613831                    
V 24 -15148.730793  -2006.847195 -25271.497576     -0.111542                    
P 25  15313.775652   9242.343627  19403.183383    464.780551                    
V 25   2393.900782  25185.997484 -13404.152624      0.020808                    
P 26   5854.566713 -21777.940609  13632.136848    231.020022                    
V 26   6616.143918  16732.880675  24029.476712     -0.016575                    
P 27   7277.882228 -19767.410445 -16174.125553    -30.165907                    
V 27  17193.801964 -10832.265064  21711.409346     -0.065529                    
P 29  20690.587993    -31.356224  16666.886920   -608.564488                    
V 29 -16918.150157  12822.600634  20865.497196     -0.005818                    
P 30 -21508.832209   3182.943340 -15308.096162   -492.579822                    
V 30 -17155.129575  -9816.904663  21625.541797      0.031957                    
P 31   5851.355505 -14098.442289  21545.290314   -222.563868                    
V 31  25566.851975  10991.589786    660.457400     -0.005897                    
P 32  20232.304328 -16995.413732   1316.232128   -548.759850                    
V 32   2999.215394   1455.262084 -31826.970235     -0.065228                    
EOF
